OBJECT_NAME,OBJECT_ID,EPOCH,MEAN_MOTION,ECCENTRICITY,INCLINATION,RA_OF_ASC_NODE,ARG_OF_PERICENTER,MEAN_ANOMALY,EPHEMERIS_TYPE,CLASSIFICATION_TYPE,NORAD_CAT_ID,ELEMENT_SET_NO,REV_AT_EPOCH,BSTAR,MEAN_MOTION_DOT,MEAN_MOTION_DDOT
TIANMU-1 20,2023-208B,2026-06-04T22:04:52.985280,15.32572948,.00071526,97.4438,272.7826,19.8042,340.3476,0,U,58661,999,13554,.29887443E-3,.933E-4,0
TIANMU-1 21,2023-208C,2026-06-04T22:14:29.757120,15.34850280,.00069968,97.4497,275.4172,12.6517,347.4900,0,U,58662,999,13568,.31472131E-3,.10564E-3,0
TIANMU-1 22,2023-208D,2026-06-04T21:58:41.688192,15.30879451,.00043462,97.4492,272.1018,44.0005,316.1582,0,U,58663,999,13545,.29292311E-3,.8666E-4,0
TIANMU-1 15,2024-004A,2026-06-04T23:24:24.930720,15.26892075,.00078531,97.4671,342.1642,42.5622,317.6224,0,U,58700,999,13391,.25168237E-3,.6579E-4,0
TIANMU-1 16,2024-004B,2026-06-04T23:05:44.937888,15.26617598,.00069466,97.4617,341.4020,47.0513,313.1307,0,U,58701,999,13391,.2462124E-3,.6379E-4,0
TIANMU-1 17,2024-004C,2026-06-04T22:44:47.703840,15.26617183,.0006609,97.4645,341.8679,52.3492,307.8346,0,U,58702,999,13390,.25113816E-3,.6508E-4,0
TIANMU-1 18,2024-004D,2026-06-04T22:13:46.377408,15.26876363,.00051124,97.4662,342.0940,51.3292,308.8403,0,U,58703,999,13390,.25430429E-3,.6642E-4,0
INSAT-3DS,2024-033A,2026-06-04T22:30:28.713312,1.00270638,.00015514,0.0079,167.7888,260.7126,244.5593,0,U,58990,999,4694,0,-.143E-5,0
METEOR-M2 4,2024-039A,2026-06-04T22:39:14.085792,14.22428243,.00065624,98.7006,115.3962,196.6759,163.4204,0,U,59051,999,11752,.28442137E-4,.2E-6,0
GOES 19,2024-119A,2026-06-04T21:45:34.110720,1.00271442,.00006625,0.0453,133.2777,359.8973,11.3778,0,U,60133,999,684,0,-.236E-5,0
MTG-S1,2025-143A,2026-06-04T22:06:01.648224,1.00271598,.00011752,0.6140,336.2693,37.0220,208.1012,0,U,64723,999,329,0,-.2E-6,0
METOP-SGA1,2025-172A,2026-06-04T16:19:25.542336,14.21507674,.00009949,98.6648,215.6355,85.2125,274.9166,0,U,65159,999,4201,.48300232E-4,.62E-6,0
FENGYUN 3H,2025-219A,2026-06-03T10:35:08.023776,14.19917857,.00016378,98.6765,95.4778,88.4136,271.7228,0,U,65815,999,3543,.58743444E-4,.81E-6,0
