TIANMU-1 20             
1 58661U 23208B   26155.92005770  .00009330  00000+0  29887-3 0  9991
2 58661  97.4438 272.7826 0007152  19.8042 340.3476 15.32572948135547
TIANMU-1 21             
1 58662U 23208C   26155.92673330  .00010564  00000+0  31472-3 0  9999
2 58662  97.4497 275.4172 0006996  12.6517 347.4900 15.34850280135685
TIANMU-1 22             
1 58663U 23208D   26155.91576028  .00008666  00000+0  29292-3 0  9992
2 58663  97.4492 272.1018 0004346  44.0005 316.1582 15.30879451135453
TIANMU-1 15             
1 58700U 24004A   26155.97528855  .00006579  00000+0  25168-3 0  9999
2 58700  97.4671 342.1642 0007853  42.5622 317.6224 15.26892075133919
TIANMU-1 16             
1 58701U 24004B   26155.96232567  .00006379  00000+0  24621-3 0  9992
2 58701  97.4617 341.4020 0006946  47.0513 313.1307 15.26617598133911
TIANMU-1 17             
1 58702U 24004C   26155.94777435  .00006508  00000+0  25114-3 0  9991
2 58702  97.4645 341.8679 0006609  52.3492 307.8346 15.26617183133900
TIANMU-1 18             
1 58703U 24004D   26155.92623122  .00006642  00000+0  25430-3 0  9993
2 58703  97.4662 342.0940 0005112  51.3292 308.8403 15.26876363133901
INSAT-3DS               
1 58990U 24033A   26155.93783233 -.00000143  00000+0  00000+0 0  9997
2 58990   0.0079 167.7888 0001551 260.7126 244.5593  1.00270638 46942
METEOR-M2 4             
1 59051U 24039A   26155.94391303  .00000020  00000+0  28442-4 0  9994
2 59051  98.7006 115.3962 0006562 196.6759 163.4204 14.22428243117529
GOES 19                 
1 60133U 24119A   26155.90664480 -.00000236  00000+0  00000+0 0  9996
2 60133   0.0453 133.2777 0000662 359.8973  11.3778  1.00271442  6841
MTG-S1                  
1 64723U 25143A   26155.92085241 -.00000020  00000+0  00000+0 0  9998
2 64723   0.6140 336.2693 0001175  37.0220 208.1012  1.00271598  3296
METOP-SGA1              
1 65159U 25172A   26155.68015674  .00000062  00000+0  48300-4 0  9995
2 65159  98.6648 215.6355 0000994  85.2125 274.9166 14.21507674 42010
FENGYUN 3H              
1 65815U 25219A   26154.44106509  .00000081  00000+0  58743-4 0  9990
2 65815  98.6765  95.4778 0001637  88.4136 271.7228 14.19917857 35431
